{
  "norad_id": 68598,
  "name": "KUIPER-00301",
  "history": [
    {
      "epoch": "2026-04-09T12:08:59.712288Z",
      "apogee_km": 462.8793853071911,
      "perigee_km": 450.6189664848689,
      "latitude_deg": 4.3588933351469974e-06,
      "longitude_deg": 129.1113392395763,
      "height_km": 461.65642317518615,
      "semi_major_axis_km": 6834.886175896029,
      "eccentricity": 0.0008969,
      "inclination_deg": 51.8646,
      "raan_deg": 149.1136,
      "arg_perigee_deg": 132.6902,
      "mean_anomaly_deg": 227.4841,
      "mean_motion_rev_day": 15.36405426
    }
  ]
}